[
    {
        "Altitude(m)": 568063.6899921076,
        "Argument of Periapsis(deg)": 0.033114955553567506,
        "Eccentricity": 0.0,
        "Inclination(deg)": 53.0,
        "Latitude(deg)": -43.72050143243465,
        "Longitude(deg)": 96.79437449294049,
        "Mean Anomaly(deg)": -120.45103566211203,
        "RAAN(deg)": 334.9507168426401,
        "Satellite Name": "Starlink Shell 1 1485",
        "Satellite Number": 1485,
        "Semi-Major Axis(m)": 6931778.249405717,
        "Time(s)": 950
    },
    {
        "Altitude(m)": 568206.3537256349,
        "Argument of Periapsis(deg)": 0.03346353403307874,
        "Eccentricity": 0.0,
        "Inclination(deg)": 53.0,
        "Latitude(deg)": -44.06700612830135,
        "Longitude(deg)": 97.47383026225509,
        "Mean Anomaly(deg)": -119.82420445855539,
        "RAAN(deg)": 334.9501980725626,
        "Satellite Name": "Starlink Shell 1 1485",
        "Satellite Number": 1485,
        "Semi-Major Axis(m)": 6931778.249405717,
        "Time(s)": 960
    },
    {
        "Altitude(m)": 568346.9798941526,
        "Argument of Periapsis(deg)": 0.03381211251258998,
        "Eccentricity": 0.0,
        "Inclination(deg)": 53.0,
        "Latitude(deg)": -44.40888478889059,
        "Longitude(deg)": 98.16166584896699,
        "Mean Anomaly(deg)": -119.19737325499862,
        "RAAN(deg)": 334.94967930248515,
        "Satellite Name": "Starlink Shell 1 1485",
        "Satellite Number": 1485,
        "Semi-Major Axis(m)": 6931778.249405717,
        "Time(s)": 970
    },
    {
        "Altitude(m)": 568485.5131538004,
        "Argument of Periapsis(deg)": 0.034160690992101214,
        "Eccentricity": 0.0,
        "Inclination(deg)": 53.0,
        "Latitude(deg)": -44.746029464712436,
        "Longitude(deg)": 98.85796421318959,
        "Mean Anomaly(deg)": -118.57054205144185,
        "RAAN(deg)": 334.9491605324077,
        "Satellite Name": "Starlink Shell 1 1485",
        "Satellite Number": 1485,
        "Semi-Major Axis(m)": 6931778.249405717,
        "Time(s)": 980
    },
    {
        "Altitude(m)": 568621.89894477,
        "Argument of Periapsis(deg)": 0.034509269471612446,
        "Eccentricity": 0.0,
        "Inclination(deg)": 53.0,
        "Latitude(deg)": -45.07833055853116,
        "Longitude(deg)": 99.5628035974443,
        "Mean Anomaly(deg)": -117.94371084788523,
        "RAAN(deg)": 334.9486417623302,
        "Satellite Name": "Starlink Shell 1 1485",
        "Satellite Number": 1485,
        "Semi-Major Axis(m)": 6931778.249405717,
        "Time(s)": 990
    }
]